NORAD_CAT_ID,OBJECT_NAME,OBJECT_TYPE,EPOCH,MEAN_MOTION,ECCENTRICITY,INCLINATION,RA_OF_ASC_NODE,ARG_OF_PERICENTER,MEAN_ANOMALY,BSTAR,MEAN_MOTION_DOT,MEAN_MOTION_DDOT,TLE_LINE0,TLE_LINE1,TLE_LINE2,SEMIMAJOR_AXIS,PERIOD,APOGEE,PERIGEE,DECAYED
53248.0,STARLINK-4135,PAYLOAD,2024-04-24 04:22:42,15.08849222,0.0001585,53.2188,32.0938,104.4865,255.6304,-7.5467e-06,-4.08e-06,0.0,0 STARLINK-4135,1 53248U 22086G   24115.18244189 -.00000408  00000-0 -75467-5 0  9998,2 53248  53.2188  32.0938 0001585 104.4865 255.6304 15.08849222 97476,6917.852,95.437,540.814,538.621,0.0
53248.0,STARLINK-4135,PAYLOAD,2024-04-24 21:51:58,15.08833573,0.0001478,53.2194,28.8222,114.1087,246.006,4.53e-05,4.33e-06,0.0,0 STARLINK-4135,1 53248U 22086G   24115.91108908  .00000433  00000-0  45300-4 0  9995,2 53248  53.2194  28.8222 0001478 114.1087 246.0060 15.08833573 98080,6917.9,95.438,540.787,538.743,0.0
53248.0,STARLINK-4135,PAYLOAD,2024-04-25 04:13:31,15.08829071,0.0001654,53.2192,27.6339,120.9082,239.2073,2.0028e-05,3.1e-07,0.0,0 STARLINK-4135,1 53248U 22086G   24116.17605352  .00000031  00000-0  20028-4 0  9993,2 53248  53.2192  27.6339 0001654 120.9082 239.2073 15.08829071 97625,6917.914,95.438,540.923,538.635,0.0
53248.0,STARLINK-4135,PAYLOAD,2024-04-25 21:42:45,15.08841173,0.0001277,53.2179,24.364,119.798,240.3139,-2.1507e-05,-6.3e-06,0.0,0 STARLINK-4135,1 53248U 22086G   24116.90469071 -.00000630  00000-0 -21507-4 0  9990,2 53248  53.2179  24.3640 0001277 119.7980 240.3139 15.08841173 98234,6917.877,95.437,540.625,538.858,0.0
53248.0,STARLINK-4135,PAYLOAD,2024-04-26 00:53:29,15.08873021,0.0001288,53.2193,23.7677,122.5593,237.5524,0.00029342,4.389e-05,0.0,0 STARLINK-4135,1 53248U 22086G   24117.03714134  .00004389  00000-0  29342-3 0  9995,2 53248  53.2193  23.7677 0001288 122.5593 237.5524 15.08873021 97756,6917.779,95.435,540.535,538.753,0.0
53248.0,STARLINK-4135,PAYLOAD,2024-04-26 10:25:40,15.08953055,0.0001421,53.2192,21.9846,49.2108,310.9007,0.00086859,0.00013605,0.0,0 STARLINK-4135,1 53248U 22086G   24117.43449363  .00013605  00000-0  86859-3 0  9995,2 53248  53.2192  21.9846 0001421  49.2108 310.9007 15.08953055 97814,6917.535,95.43,540.383,538.417,0.0
53248.0,STARLINK-4135,PAYLOAD,2024-04-27 03:55:07,15.0880146,0.0001317,53.2179,18.7165,106.7614,253.3522,-0.0002333,-3.995e-05,0.0,0 STARLINK-4135,1 53248U 22086G   24118.16328119 -.00003995  00000-0 -23330-3 0  9999,2 53248  53.2179  18.7165 0001317 106.7614 253.3522 15.08801460 97928,6917.998,95.44,540.774,538.952,0.0
53248.0,STARLINK-4135,PAYLOAD,2024-04-27 10:16:39,15.08818753,0.0001424,53.2187,17.5313,88.705,271.4105,-0.0001535,-2.729e-05,0.0,0 STARLINK-4135,1 53248U 22086G   24118.42823235 -.00002729  00000-0 -15350-3 0  9994,2 53248  53.2187  17.5313 0001424  88.7050 271.4105 15.08818753 97966,6917.945,95.439,540.795,538.825,0.0
53248.0,STARLINK-4135,PAYLOAD,2024-04-27 22:59:43,15.08847672,8.5e-05,53.2193,15.1504,103.7895,256.3192,-0.00027531,-4.667e-05,0.0,0 STARLINK-4135,1 53248U 22086G   24118.95814313 -.00004667  00000-0 -27531-3 0  9996,2 53248  53.2193  15.1504 0000850 103.7895 256.3192 15.08847672 98541,6917.857,95.437,540.31,539.134,0.0
53248.0,STARLINK-4135,PAYLOAD,2024-04-28 02:10:29,15.08850278,0.0001046,53.2176,14.5565,78.2878,281.8232,-0.00021657,-3.734e-05,0.0,0 STARLINK-4135,1 53248U 22086G   24119.09061967 -.00003734  00000-0 -21657-3 0  9998,2 53248  53.2176  14.5565 0001046  78.2878 281.8232 15.08850278 98068,6917.849,95.437,540.438,538.99,0.0
53248.0,STARLINK-4135,PAYLOAD,2024-04-28 10:07:23,15.08871544,8.34e-05,53.2181,13.0689,95.8222,264.2865,-9.5506e-05,-1.809e-05,0.0,0 STARLINK-4135,1 53248U 22086G   24119.42179689 -.00001809  00000-0 -95506-4 0  9992,2 53248  53.2181  13.0689 0000834  95.8222 264.2865 15.08871544 98119,6917.784,95.436,540.226,539.072,0.0
53248.0,STARLINK-4135,PAYLOAD,2024-04-28 21:15:07,15.08789016,0.0001459,53.2189,10.9865,81.7524,278.3633,0.00069542,0.00010782,0.0,0 STARLINK-4135,1 53248U 22086G   24119.88550229  .00010782  00000-0  69542-3 0  9993,2 53248  53.2189  10.9865 0001459  81.7524 278.3633 15.08789016 98180,6918.036,95.441,540.911,538.892,0.0
53248.0,STARLINK-4135,PAYLOAD,2024-04-28 22:50:30,15.08786819,9.84e-05,53.2197,10.6895,84.0778,276.0327,0.00067684,0.00010485,0.0,0 STARLINK-4135,1 53248U 22086G   24119.95174572  .00010485  00000-0  67684-3 0  9999,2 53248  53.2197  10.6895 0000984  84.0778 276.0327 15.08786819 98697,6918.043,95.441,540.589,539.227,0.0
53248.0,STARLINK-4135,PAYLOAD,2024-04-29 02:01:16,15.08828922,0.0001293,53.2177,10.0931,80.4484,279.6654,0.00036659,5.549e-05,0.0,0 STARLINK-4135,1 53248U 22086G   24120.08421340  .00005549  00000-0  36659-3 0  9996,2 53248  53.2177  10.0931 0001293  80.4484 279.6654 15.08828922 98210,6917.914,95.438,540.674,538.885,0.0
53248.0,STARLINK-4135,PAYLOAD,2024-04-29 09:58:11,15.08838669,0.000138,53.2191,8.6095,89.767,270.3481,0.00033627,5.068e-05,0.0,0 STARLINK-4135,1 53248U 22086G   24120.41541090  .00005068  00000-0  33627-3 0  9996,2 53248  53.2191   8.6095 0001380  89.7670 270.3481 15.08838669 98761,6917.884,95.438,540.704,538.795,0.0
53248.0,STARLINK-4135,PAYLOAD,2024-04-29 21:05:54,15.08832788,0.0001214,53.2173,6.5282,84.9827,275.1303,5.7359e-06,-1.97e-06,0.0,0 STARLINK-4135,1 53248U 22086G   24120.87910455 -.00000197  00000-0  57359-5 0  9990,2 53248  53.2173   6.5282 0001214  84.9827 275.1303 15.08832788 98338,6917.902,95.438,540.607,538.928,0.0
53248.0,STARLINK-4135,PAYLOAD,2024-04-29 22:41:17,15.08832392,0.0001133,53.2172,6.2306,85.1877,274.9245,2.983e-06,-2.4e-06,0.0,0 STARLINK-4135,1 53248U 22086G   24120.94534477 -.00000240  00000-0  29830-5 0  9996,2 53248  53.2172   6.2306 0001133  85.1877 274.9245 15.08832392 98848,6917.904,95.438,540.552,538.985,0.0
53248.0,STARLINK-4135,PAYLOAD,2024-04-30 09:48:58,15.08854128,0.0001436,53.2165,4.1457,97.3004,262.8152,-3.6279e-05,-8.66e-06,0.0,0 STARLINK-4135,1 53248U 22086G   24121.40900982 -.00000866  00000-0 -36279-4 0  9995,2 53248  53.2165   4.1457 0001436  97.3004 262.8152 15.08854128 98414,6917.837,95.437,540.696,538.709,0.0
53248.0,STARLINK-4135,PAYLOAD,2024-04-30 20:56:40,15.08843792,0.000147,53.217,2.0628,96.61,263.5059,3.3447e-05,2.44e-06,0.0,0 STARLINK-4135,1 53248U 22086G   24121.87269056  .00000244  00000-0  33447-4 0  9998,2 53248  53.2170   2.0628 0001470  96.6100 263.5059 15.08843792 98480,6917.869,95.437,540.751,538.717,0.0
53248.0,STARLINK-4135,PAYLOAD,2024-04-30 22:32:03,15.08842455,0.0001459,53.2162,1.7685,86.5674,273.5485,2.0319e-05,3.5e-07,0.0,0 STARLINK-4135,1 53248U 22086G   24121.93893245  .00000035  00000-0  20319-4 0  9990,2 53248  53.2162   1.7685 0001459  86.5674 273.5485 15.08842455 98996,6917.873,95.437,540.747,538.729,0.0
53248.0,STARLINK-4135,PAYLOAD,2024-05-01 22:22:50,15.08836011,0.0001162,53.2188,357.308,95.0011,265.1113,6.2398e-05,7.05e-06,0.0,0 STARLINK-4135,1 53248U 22086G   24122.93253273  .00000705  00000-0  62398-4 0  9999,2 53248  53.2188 357.3080 0001162  95.0011 265.1113 15.08836011 99148,6917.893,95.438,540.561,538.954,0.0
53248.0,STARLINK-4135,PAYLOAD,2024-05-02 22:13:37,15.08847437,0.0001214,53.2173,352.8464,85.8719,274.2411,6.7631e-05,7.89e-06,0.0,0 STARLINK-4135,1 53248U 22086G   24123.92612611  .00000789  00000-0  67631-4 0  9991,2 53248  53.2173 352.8464 0001214  85.8719 274.2411 15.08847437 98794,6917.858,95.437,540.562,538.883,0.0
53248.0,STARLINK-4135,PAYLOAD,2024-05-03 07:45:55,15.08853482,0.0001188,53.2166,351.0627,75.1977,284.9147,0.00012596,1.718e-05,0.0,0 STARLINK-4135,1 53248U 22086G   24124.32355815  .00001718  00000-0  12596-3 0  9998,2 53248  53.2166 351.0627 0001188  75.1977 284.9147 15.08853482 98854,6917.839,95.437,540.526,538.882,0.0
53248.0,STARLINK-4135,PAYLOAD,2024-05-03 20:29:02,15.08824591,0.0001351,53.2183,348.6849,88.339,271.7757,-6.3678e-05,-1.301e-05,0.0,0 STARLINK-4135,1 53248U 22086G   24124.85350459 -.00001301  00000-0 -63678-4 0  9993,2 53248  53.2183 348.6849 0001351  88.3390 271.7757 15.08824591 98937,6917.927,95.439,540.727,538.858,0.0
53248.0,STARLINK-4135,PAYLOAD,2024-05-03 22:04:25,15.08827169,0.00012,53.2172,348.3862,83.1141,276.9988,-3.8466e-05,-9e-06,0.0,0 STARLINK-4135,1 53248U 22086G   24124.91974276 -.00000900  00000-0 -38466-4 0  9990,2 53248  53.2172 348.3862 0001200  83.1141 276.9988 15.08827169 99441,6917.92,95.438,540.615,538.954,0.0
53248.0,STARLINK-4135,PAYLOAD,2024-05-04 07:36:44,15.08832099,0.0001278,53.2179,346.6016,83.6104,276.5033,1.5423e-06,-2.63e-06,0.0,0 STARLINK-4135,1 53248U 22086G   24125.31718047 -.00000263  00000-0  15423-5 0  9997,2 53248  53.2179 346.6016 0001278  83.6104 276.5033 15.08832099 99006,6917.905,95.438,540.654,538.885,0.0
53248.0,STARLINK-4135,PAYLOAD,2024-05-04 23:30:35,15.08837893,0.0001365,53.2189,343.6308,89.346,270.7689,4.095e-05,3.64e-06,0.0,0 STARLINK-4135,1 53248U 22086G   24125.97957839  .00000364  00000-0  40950-4 0  9996,2 53248  53.2189 343.6308 0001365  89.3460 270.7689 15.08837893 99104,6917.887,95.438,540.696,538.808,0.0
53248.0,STARLINK-4135,PAYLOAD,2024-05-05 20:10:36,15.08835491,0.0001379,53.2189,339.764,84.5551,275.5599,0.00012083,1.635e-05,0.0,0 STARLINK-4135,1 53248U 22086G   24126.84069842  .00001635  00000-0  12083-3 0  9998,2 53248  53.2189 339.7640 0001379  84.5551 275.5599 15.08835491 99736,6917.894,95.438,540.713,538.805,0.0
53248.0,STARLINK-4135,PAYLOAD,2024-05-06 07:18:18,15.08841863,0.0001366,53.2187,337.683,85.9349,274.1799,0.00012577,1.714e-05,0.0,0 STARLINK-4135,1 53248U 22086G   24127.30437506  .00001714  00000-0  12577-3 0  9992,2 53248  53.2187 337.6830 0001366  85.9349 274.1799 15.08841863 99308,6917.875,95.437,540.685,538.795,0.0
53248.0,STARLINK-4135,PAYLOAD,2024-05-06 20:01:23,15.08840228,0.0001223,53.2182,335.3023,92.1099,268.0034,2.6889e-05,1.4e-06,0.0,0 STARLINK-4135,1 53248U 22086G   24127.83429906  .00000140  00000-0  26889-4 0  9999,2 53248  53.2182 335.3023 0001223  92.1099 268.0034 15.08840228 99887,6917.88,95.438,540.591,538.899,0.0
